[{"OBJECT_NAME":"ORBCOMM FM27","OBJECT_ID":"1998-053G","EPOCH":"2026-03-09T11:53:47.305824","MEAN_MOTION":14.3893044,"ECCENTRICITY":0.00018909,"INCLINATION":45.0048,"RA_OF_ASC_NODE":88.78,"ARG_OF_PERICENTER":259.8961,"MEAN_ANOMALY":100.1675,"EPHEMERIS_TYPE":0,"CLASSIFICATION_TYPE":"U","NORAD_CAT_ID":25481,"ELEMENT_SET_NO":999,"REV_AT_EPOCH":43587,"BSTAR":0.00047812945,"MEAN_MOTION_DOT":1.345e-5,"MEAN_MOTION_DDOT":0},{"OBJECT_NAME":"FENGYUN 1C DEB","OBJECT_ID":"1999-025ECC","EPOCH":"2026-03-09T15:19:27.151680","MEAN_MOTION":14.12237339,"ECCENTRICITY":0.0254119,"INCLINATION":98.2333,"RA_OF_ASC_NODE":218.8498,"ARG_OF_PERICENTER":98.5071,"MEAN_ANOMALY":322.0857,"EPHEMERIS_TYPE":0,"CLASSIFICATION_TYPE":"U","NORAD_CAT_ID":36996,"ELEMENT_SET_NO":999,"REV_AT_EPOCH":60918,"BSTAR":0.0014208,"MEAN_MOTION_DOT":3.508e-5,"MEAN_MOTION_DDOT":0}]
